{"fetched_at":"2026-07-09T08:01:16.678Z","source":"https://celestrak.org/NORAD/elements/gp.php?NAME=PLEIADES&FORMAT=JSON","constellation":"pleiades","records":[{"OBJECT_NAME":"PLEIADES 1A","OBJECT_ID":"2011-076F","EPOCH":"2026-07-09T00:30:46.054368","CLASSIFICATION_TYPE":"U","MEAN_MOTION":14.58544374,"ECCENTRICITY":0.0001747,"INCLINATION":98.1966,"RA_OF_ASC_NODE":264.8305,"ARG_OF_PERICENTER":83.0823,"MEAN_ANOMALY":39.6482,"EPHEMERIS_TYPE":0,"NORAD_CAT_ID":38012,"ELEMENT_SET_NO":999,"REV_AT_EPOCH":77517,"BSTAR":0.000021121471,"MEAN_MOTION_DOT":5.2e-7,"MEAN_MOTION_DDOT":0},{"OBJECT_NAME":"PLEIADES 1B","OBJECT_ID":"2012-068A","EPOCH":"2026-07-08T23:07:10.595712","CLASSIFICATION_TYPE":"U","MEAN_MOTION":14.58531307,"ECCENTRICITY":0.00016411,"INCLINATION":98.1936,"RA_OF_ASC_NODE":264.715,"ARG_OF_PERICENTER":82.3136,"MEAN_ANOMALY":277.8249,"EPHEMERIS_TYPE":0,"NORAD_CAT_ID":39019,"ELEMENT_SET_NO":999,"REV_AT_EPOCH":72402,"BSTAR":-0.000013014273,"MEAN_MOTION_DOT":-0.00000106,"MEAN_MOTION_DDOT":0}]}
